HAWK-6B                 
1 55324U 23011A   26188.51051738  .00002705  00000+0  12040-3 0  9994
2 55324  40.4971 233.5181 0003026 198.0696 162.0006 15.23109588190949
HAWK-6C                 
1 55326U 23011C   26188.50989634  .00002923  00000+0  12945-3 0  9996
2 55326  40.4958 230.3577 0003395 184.7750 175.3028 15.23109837190951
HAWK-6A                 
1 55327U 23011D   26188.50992955  .00002904  00000+0  12864-3 0  9996
2 55327  40.4968 231.9843 0002933 183.2670 176.8121 15.23110974190952
HAWK-7A                 
1 56191U 23054P   26188.35306109  .00004025  00000+0  15193-3 0  9990
2 56191  97.2674  75.1775 0002330   6.4575 353.6694 15.27577059180100
HAWK-7B                 
1 56193U 23054R   26188.15647095  .00004259  00000+0  16063-3 0  9998
2 56193  97.2702  73.2569 0002208  31.2593 328.8778 15.27578846180072
HAWK-7C                 
1 56200U 23054Y   26187.76332639  .00004848  00000+0  18249-3 0  9990
2 56200  97.2677  73.6361 0001922  19.6555 340.4758 15.27574338180010
